OBJECT_NAME,OBJECT_ID,EPOCH,MEAN_MOTION,ECCENTRICITY,INCLINATION,RA_OF_ASC_NODE,ARG_OF_PERICENTER,MEAN_ANOMALY,EPHEMERIS_TYPE,CLASSIFICATION_TYPE,NORAD_CAT_ID,ELEMENT_SET_NO,REV_AT_EPOCH,BSTAR,MEAN_MOTION_DOT,MEAN_MOTION_DDOT
STARLINK-31773,2024-065J,2026-03-20T09:45:34.378560,15.30187923,.00010889,53.1598,233.7843,74.2689,285.8431,0,U,59429,999,11054,.9281467E-5,-.84E-6,0
STARLINK-31772,2024-065K,2026-03-20T09:49:22.237824,15.30184456,.00012469,53.1598,231.6653,96.3463,263.7680,0,U,59430,999,11057,-.5510581E-5,-.522E-5,0
STARLINK-31613,2024-065L,2026-03-21T03:22:10.655904,15.30199043,.00011889,53.1586,228.4082,94.8375,265.2761,0,U,59431,999,11068,.50389858E-4,.1133E-4,0
STARLINK-31780,2024-065M,2026-03-20T16:34:27.331968,15.30148061,.00015894,53.1592,230.5755,137.7824,222.3299,0,U,59432,999,11061,.3614521E-3,.10344E-3,0
STARLINK-31740,2024-065N,2026-03-20T19:06:50.117760,15.30203699,.00029225,53.1579,231.9567,68.2567,291.8745,0,U,59433,999,11060,.65459166E-4,.1579E-4,0
STARLINK-31580,2024-065P,2026-03-20T19:19:00.438816,15.30188079,.00011105,53.1602,232.0022,85.1135,274.9992,0,U,59434,999,11060,.11241073E-4,-.26E-6,0
STARLINK-31696,2024-065Q,2026-03-20T21:01:24.754944,15.30190212,.00013313,53.1582,229.6013,92.5727,267.5426,0,U,59435,999,11064,.24060251E-4,.353E-5,0
STARLINK-31700,2024-065R,2026-03-21T03:08:28.472640,15.30212651,.00012106,53.1581,228.3466,99.1198,260.9940,0,U,59436,999,11068,.99292895E-4,.2584E-4,0
STARLINK-31706,2024-065S,2026-03-20T19:08:18.830688,15.30232184,.00003932,53.1597,231.9621,102.5222,257.5823,0,U,59437,999,11060,.16530106E-3,.4545E-4,0
STARLINK-31711,2024-065T,2026-03-21T03:13:03.326592,15.30204280,.00011959,53.1600,228.3667,97.4500,262.6637,0,U,59438,999,11068,-.32202384E-4,-.1313E-4,0
STARLINK-31708,2024-065U,2026-03-20T09:44:48.754176,15.30181832,.00010615,53.1607,231.6439,113.4760,246.6353,0,U,59439,999,11057,.9279737E-5,-.84E-6,0
STARLINK-31693,2024-065W,2026-03-20T21:19:38.281728,15.30200540,.00011566,53.1600,229.6768,75.6531,284.4598,0,U,59441,999,11064,.51191247E-4,.1157E-4,0
TSAT-1A,2024-066A,2026-03-21T03:53:04.743744,15.33521038,.00109034,45.6173,240.9838,321.3242,38.6871,0,U,59442,999,10825,.48646141E-3,.15803E-3,0
HAWK-8A,2024-066B,2026-03-21T01:43:19.317504,14.98818842,.00039932,45.5965,12.0905,301.4309,58.6182,0,U,59443,999,10661,.1421948E-3,.151E-4,0
CAPELLA-14 (ACADIA-4),2024-066C,2026-03-21T01:46:04.527264,15.10984134,.00052721,45.6060,0.0940,185.0601,175.0233,0,U,59444,999,9914,.10710273E-2,.17957E-3,0
HAWK-8B,2024-066D,2026-03-21T01:43:54.620544,14.98818609,.00040094,45.6220,13.7986,304.5836,55.4667,0,U,59445,999,10660,.14287238E-3,.1518E-4,0
HAWK-9A,2024-066E,2026-03-20T19:53:29.053536,14.98830046,.00036483,45.6103,13.8337,287.3516,72.6966,0,U,59446,999,10657,.16530327E-3,.1793E-4,0
QPS-SAR-7 (TSUKUYOMI-II),2024-066F,2026-03-21T05:05:46.067136,15.07699182,.00011162,45.6059,346.6268,212.9427,147.1388,0,U,59447,999,10694,.53819994E-3,.81E-4,0
HAWK-9C,2024-066G,2026-03-20T05:30:05.540256,14.98824838,.0003743,45.5980,16.1237,274.2565,85.7888,0,U,59448,999,10648,.14877E-3,.1591E-4,0
HAWK-8C,2024-066H,2026-03-21T01:43:10.546176,14.98818845,.00035585,45.6096,12.9495,306.9482,53.1073,0,U,59449,999,10660,.14452624E-3,.1538E-4,0
HAWK-9B,2024-066J,2026-03-20T23:05:52.680192,14.98831660,.00040117,45.6240,13.9892,275.1824,84.8600,0,U,59450,999,10659,.1510694E-3,.1619E-4,0
CENTAURI-6,2024-066K,2026-03-20T19:22:46.665120,15.04936080,.00016905,45.6074,355.8123,317.4961,42.5792,0,U,59451,999,10680,.40771882E-3,.5625E-4,0
KORSAT-1,2024-066L,2026-03-21T04:10:33.724416,14.99821548,.00106732,45.4121,340.3753,269.4108,90.5547,0,U,59452,999,10685,.32565254E-3,.3865E-4,0
STARLINK-31622,2024-068B,2026-03-20T22:59:53.358144,15.27577519,.00011183,43.0034,331.0936,259.9058,100.1668,0,U,59456,999,11024,.71689477E-4,.1711E-4,0
STARLINK-31319,2024-068C,2026-03-20T17:43:00.472224,15.27552127,.0000835,43.0010,328.5614,270.4718,89.6038,0,U,59457,999,11025,-.80108E-4,-.2464E-4,0
STARLINK-31625,2024-068D,2026-03-20T22:45:04.708224,15.27584037,.00010602,43.0039,331.0127,268.3581,91.7149,0,U,59458,999,11024,.63015953E-4,.1473E-4,0
STARLINK-31631,2024-068E,2026-03-20T17:22:36.573024,15.27577476,.00009518,43.0031,328.4572,285.3662,74.7085,0,U,59459,999,11025,-.2342493E-4,-.906E-5,0
STARLINK-31620,2024-068F,2026-03-20T17:54:03.376224,15.27604078,.00007568,43.0049,328.6190,272.0013,88.0752,0,U,59460,999,11025,-.15395435E-3,-.4499E-4,0
STARLINK-31511,2024-068H,2026-03-20T10:21:07.467552,15.27550984,.00016858,43.0071,334.0169,257.9136,102.1527,0,U,59462,999,11016,-.11370009E-3,-.3387E-4,0
STARLINK-31364,2024-068J,2026-03-20T23:50:19.629600,15.27582029,.00009179,43.0022,327.0374,279.3768,80.6980,0,U,59463,999,11029,.38222671E-4,.79E-5,0
