STARLINK-31773          
1 59429U 24065J   26079.40664790 -.00000084  00000+0  92815-5 0  9998
2 59429  53.1598 233.7843 0001088  74.2689 285.8431 15.30187923110546
STARLINK-31772          
1 59430U 24065K   26079.40928516 -.00000522  00000+0 -55106-5 0  9999
2 59430  53.1598 231.6653 0001246  96.3463 263.7680 15.30184456110577
STARLINK-31613          
1 59431U 24065L   26080.14040111  .00001133  00000+0  50390-4 0  9995
2 59431  53.1586 228.4082 0001188  94.8375 265.2761 15.30199043110682
STARLINK-31780          
1 59432U 24065M   26079.69059412  .00010344  00000+0  36145-3 0  9993
2 59432  53.1592 230.5755 0001589 137.7824 222.3299 15.30148061110619
STARLINK-31740          
1 59433U 24065N   26079.79641340  .00001579  00000+0  65459-4 0  9993
2 59433  53.1579 231.9567 0002922  68.2567 291.8745 15.30203699110600
STARLINK-31580          
1 59434U 24065P   26079.80486619 -.00000026  00000+0  11241-4 0  9999
2 59434  53.1602 232.0022 0001110  85.1135 274.9992 15.30188079110603
STARLINK-31696          
1 59435U 24065Q   26079.87598096  .00000353  00000+0  24060-4 0  9995
2 59435  53.1582 229.6013 0001331  92.5727 267.5426 15.30190212110643
STARLINK-31700          
1 59436U 24065R   26080.13088510  .00002584  00000+0  99293-4 0  9990
2 59436  53.1581 228.3466 0001210  99.1198 260.9940 15.30212651110686
STARLINK-31706          
1 59437U 24065S   26079.79744017  .00004545  00000+0  16530-3 0  9993
2 59437  53.1597 231.9621 0000393 102.5222 257.5823 15.30232184110602
STARLINK-31711          
1 59438U 24065T   26080.13406628 -.00001313  00000+0 -32202-4 0  9994
2 59438  53.1600 228.3667 0001195  97.4500 262.6637 15.30204280110684
STARLINK-31708          
1 59439U 24065U   26079.40611984 -.00000084  00000+0  92797-5 0  9995
2 59439  53.1607 231.6439 0001061 113.4760 246.6353 15.30181832110577
STARLINK-31693          
1 59441U 24065W   26079.88863752  .00001157  00000+0  51191-4 0  9995
2 59441  53.1600 229.6768 0001156  75.6531 284.4598 15.30200540110642
TSAT-1A                 
1 59442U 24066A   26080.16186046  .00015803  00000+0  48646-3 0  9997
2 59442  45.6173 240.9838 0010903 321.3242  38.6871 15.33521038108256
HAWK-8A                 
1 59443U 24066B   26080.07175136  .00001510  00000+0  14219-3 0  9995
2 59443  45.5965  12.0905 0003993 301.4309  58.6182 14.98818842106619
CAPELLA-14 (ACADIA-4)   
1 59444U 24066C   26080.07366351  .00017957  00000+0  10710-2 0  9990
2 59444  45.6060   0.0940 0005272 185.0601 175.0233 15.10984134 99149
HAWK-8B                 
1 59445U 24066D   26080.07215996  .00001518  00000+0  14287-3 0  9999
2 59445  45.6220  13.7986 0004009 304.5836  55.4667 14.98818609106604
HAWK-9A                 
1 59446U 24066E   26079.82880849  .00001793  00000+0  16530-3 0  9994
2 59446  45.6103  13.8337 0003648 287.3516  72.6966 14.98830046106575
QPS-SAR-7 (TSUKUYOMI-II)
1 59447U 24066F   26080.21233874  .00008100  00000+0  53820-3 0  9992
2 59447  45.6059 346.6268 0001116 212.9427 147.1388 15.07699182106941
HAWK-9C                 
1 59448U 24066G   26079.22923079  .00001591  00000+0  14877-3 0  9991
2 59448  45.5980  16.1237 0003743 274.2565  85.7888 14.98824838106489
HAWK-8C                 
1 59449U 24066H   26080.07164984  .00001538  00000+0  14453-3 0  9990
2 59449  45.6096  12.9495 0003558 306.9482  53.1073 14.98818845106604
HAWK-9B                 
1 59450U 24066J   26079.96241528  .00001619  00000+0  15107-3 0  9995
2 59450  45.6240  13.9892 0004011 275.1824  84.8600 14.98831660106596
CENTAURI-6              
1 59451U 24066K   26079.80748455  .00005625  00000+0  40772-3 0  9997
2 59451  45.6074 355.8123 0001690 317.4961  42.5792 15.04936080106806
KORSAT-1                
1 59452U 24066L   26080.17400144  .00003865  00000+0  32565-3 0  9995
2 59452  45.4121 340.3753 0010673 269.4108  90.5547 14.99821548106857
STARLINK-31622          
1 59456U 24068B   26079.95825646  .00001711  00000+0  71689-4 0  9992
2 59456  43.0034 331.0936 0001118 259.9058 100.1668 15.27577519110248
STARLINK-31319          
1 59457U 24068C   26079.73819991 -.00002464  00000+0 -80108-4 0  9999
2 59457  43.0010 328.5614 0000835 270.4718  89.6038 15.27552127110254
STARLINK-31625          
1 59458U 24068D   26079.94797116  .00001473  00000+0  63016-4 0  9993
2 59458  43.0039 331.0127 0001060 268.3581  91.7149 15.27584037110240
STARLINK-31631          
1 59459U 24068E   26079.72403441 -.00000906  00000+0 -23425-4 0  9997
2 59459  43.0031 328.4572 0000951 285.3662  74.7085 15.27577476110254
STARLINK-31620          
1 59460U 24068F   26079.74587241 -.00004499  00000+0 -15395-3 0  9999
2 59460  43.0049 328.6190 0000756 272.0013  88.0752 15.27604078110257
STARLINK-31511          
1 59462U 24068H   26079.43133643 -.00003387  00000+0 -11370-3 0  9994
2 59462  43.0071 334.0169 0001685 257.9136 102.1527 15.27550984110165
STARLINK-31364          
1 59463U 24068J   26079.99328275  .00000790  00000+0  38223-4 0  9993
2 59463  43.0022 327.0374 0000917 279.3768  80.6980 15.27582029110290
